STARLINK-4609           
1 53619U 22104AH  22249.16667824 -.01193383  00000+0 -72452-2 0  9993
2 53619  53.2175 243.3048 0003195  11.2204 159.3566 15.79461907  1455
STARLINK-4615           
1 53620U 22104AJ  22249.16667824 -.01194421  00000+0 -72244-2 0  9998
2 53620  53.2175 243.3008 0003231   8.5647 164.2729 15.79545175  1450
STARLINK-4608           
1 53621U 22104AK  22249.16667824 -.01194001  00000+0 -72389-2 0  9993
2 53621  53.2175 243.3030 0003265  10.0972 161.4099 15.79492518  1453
STARLINK-4568           
1 53622U 22104AL  22249.16667824 -.01194513  00000+0 -72132-2 0  9998
2 53622  53.2175 243.2990 0003219   8.9106 164.8056 15.79580917  1453
STARLINK-4573           
1 53623U 22104AM  22249.16667824 -.01194275  00000+0 -72290-2 0  9999
2 53623  53.2175 243.3012 0003260   8.8865 163.5050 15.79527958  1453
STARLINK-4596           
1 53624U 22104AN  22249.16667824 -.01193611  00000+0 -72033-2 0  9998
2 53624  53.2175 243.2981 0003223  10.9846 163.2224 15.79592260  1458
STARLINK-4603           
1 53625U 22104AP  22249.16667824 -.01194319  00000+0 -72180-2 0  9998
2 53625  53.2175 243.2994 0003230   9.9855 163.2973 15.79562351  1458
STARLINK-4554           
1 53626U 22104AQ  22249.16667824 -.01194570  00000+0 -71928-2 0  9997
2 53626  53.2175 243.2954 0003208   8.7802 166.7638 15.79643747  1454
STARLINK-4595           
1 53627U 22104AR  22249.16667824 -.01194513  00000+0 -72030-2 0  9990
2 53627  53.2175 243.2967 0003216   8.7085 165.9277 15.79611696  1459
STARLINK-4600           
1 53628U 22104AS  22249.16667824 -.01194693  00000+0 -71812-2 0  9997
2 53628  53.2175 243.2937 0003293   7.9596 168.4521 15.79680133  1452
STARLINK-4602           
1 53629U 22104AT  22249.16667824 -.01194625  00000+0 -71982-2 0  9991
2 53629  53.2175 243.2959 0003281   8.1001 166.9917 15.79627585  1452
STARLINK-4598           
1 53630U 22104AU  22249.16667824 -.01194654  00000+0 -71769-2 0  9998
2 53630  53.2175 243.2928 0003205   8.8002 168.0875 15.79693526  1458
STARLINK-4599           
1 53631U 22104AV  22249.16667824 -.01194603  00000+0 -71874-2 0  9990
2 53631  53.2175 243.2941 0003216   8.6946 167.2953 15.79660606  1452
STARLINK-4606           
1 53632U 22104AW  22249.16667824 -.01194553  00000+0 -71649-2 0  9995
2 53632  53.2175 243.2911 0003176   9.6869 168.0809 15.79728168  1457
STARLINK-4593           
1 53633U 22104AX  22249.16667824 -.01194698  00000+0 -71720-2 0  9996
2 53633  53.2175 243.2914 0003218   8.6775 168.6668 15.79709082  1456
STARLINK-4592           
1 53634U 22104AY  22249.50001157 -.01197690  00000+0 -74684-2 0  9993
2 53634  53.2173 241.6255 0002635  11.3712 263.5721 15.78895820  1505
STARLINK-4587           
1 53635U 22104AZ  22249.16667824 -.01194762  00000+0 -71606-2 0  9993
2 53635  53.2175 243.2897 0003156   9.4727 168.7339 15.79745722  1452
STARLINK-4586           
1 53636U 22104BA  22249.50001157 -.01197753  00000+0 -74573-2 0  9992
2 53636  53.2173 241.6237 0002680  10.8055 265.0679 15.78929079  1504
STARLINK-4396           
1 53637U 22104BB  22249.16667824 -.01194831  00000+0 -71499-2 0  9992
2 53637  53.2175 243.2879 0003224   8.6069 170.4934 15.79778649  1455
STARLINK-4594           
1 53638U 22104BC  22249.16667824 -.01194910  00000+0 -71334-2 0  9999
2 53638  53.2175 243.2859 0003227   8.5602 171.8575 15.79830288  1453
STARLINK-4422           
1 53639U 22104BD  22249.16667824 -.01194880  00000+0 -71384-2 0  9991
2 53639  53.2175 243.2862 0003235   8.4920 171.4750 15.79814376  1450
STARLINK-4597           
1 53640U 22104BE  22249.50001157 -.01197763  00000+0 -74398-2 0  9993
2 53640  53.2173 241.6210 0002630  11.3122 265.9349 15.78981271  1501
STARLINK-4588           
1 53641U 22104BF  22249.50001157 -.01197854  00000+0 -74352-2 0  9995
2 53641  53.2173 241.6194 0002743  10.0087 267.7233 15.78995222  1507
FALCON 9 DEB            
1 53642U 22104BG  22248.58710208  .00734416  27419-3  84113-3 0  9999
2 53642  53.2186 245.6945 0064716  74.4312 286.3853 16.04046935  1360
FALCON 9 DEB            
1 53643U 22104BH  22248.58480899  .00742880  28306-3  85076-3 0  9999
2 53643  53.2164 245.6757 0060760  75.6087 285.1681 16.04537756  1367
FALCON 9 DEB            
1 53644U 22104BJ  22248.39222484  .00776949  31629-3  84183-3 0  9996
2 53644  53.2162 246.5993 0059204  70.0396 290.7001 16.05539412  1338
FALCON 9 DEB            
1 53645U 22104BK  22248.39132472  .00788246  11476-4  84071-3 0  9992
2 53645  53.2169 246.5926 0059046  71.4768 289.2669 16.05711924  1348
2022-106A               
1 53698U 22106A   22249.45484028 -.00000138  00000+0 -17732-4 0  9993
2 53698  98.1876 255.5449 0005802 234.5051 125.5658 14.62862103   512
2022-106B               
1 53699U 22106B   22249.52325384  .00001514  00000+0  12969-3 0  9994
2 53699  98.2017 255.8059 0145212  40.0119 321.1688 14.91451906   521
2022-108A               
1 53757U 22108A   22249.49090808 -.00000184  00000+0  00000+0 0  9999
2 53757  53.5341 345.0438 0008631 279.8178  80.1881 14.58225510    51
2022-108B               
1 53758U 22108B   22249.49104785 -.00000184  00000+0  00000+0 0  9990
2 53758  53.5311 345.0436 0008305 262.1348  97.8740 14.57684874    59
2022-108C               
1 53759U 22108C   22249.54089187  .00520283  98100-5  94389-3 0  9992
2 53759  53.5596 344.6718 0412159  81.0248 283.7159 15.28172119    60
2022-109A               
1 53760U 22109A   22249.50340309 -.00000037  00000+0  00000+0 0  9997
2 53760  34.9936  23.4931 0008200 266.8069 173.0803 15.23016296    47
2022-109B               
1 53761U 22109B   22249.50617944 -.00000037  00000+0  00000+0 0  9990
2 53761  34.9922  23.4735 0008059 280.7051 175.2318 15.23693891    17
2022-109C               
1 53762U 22109C   22249.50409272 -.00000037  00000+0  00000+0 0  9994
2 53762  34.9923  23.4868 0007512 261.3561 182.8622 15.23436151    16
2022-109D               
1 53763U 22109D   22249.50030942 -.00000037  00000+0  00000+0 0  9999
2 53763  34.9999  23.5190 0007304 263.6449 159.7313 15.23404379    15
2022-109E               
1 53764U 22109E   22249.50613126 -.00000037  00000+0  00000+0 0  9991
2 53764  34.9931  23.4766 0008644 262.5461 192.5130 15.23167744    14
